[{"OBJECT_NAME":"STARLINK-36202","OBJECT_ID":"2025-298V","EPOCH":"2026-03-09T22:18:08.038080","MEAN_MOTION":14.99160974,"ECCENTRICITY":0.00024266,"INCLINATION":70.0038,"RA_OF_ASC_NODE":13.8431,"ARG_OF_PERICENTER":236.7757,"MEAN_ANOMALY":123.317,"EPHEMERIS_TYPE":0,"CLASSIFICATION_TYPE":"U","NORAD_CAT_ID":67094,"ELEMENT_SET_NO":999,"REV_AT_EPOCH":1325,"BSTAR":0.00049737229,"MEAN_MOTION_DOT":5.975e-5,"MEAN_MOTION_DDOT":0},{"OBJECT_NAME":"CZ-6A DEB","OBJECT_ID":"2022-151BB","EPOCH":"2026-03-09T17:16:48.853632","MEAN_MOTION":14.94828895,"ECCENTRICITY":0.00449007,"INCLINATION":98.6423,"RA_OF_ASC_NODE":141.5544,"ARG_OF_PERICENTER":201.6501,"MEAN_ANOMALY":158.2819,"EPHEMERIS_TYPE":0,"CLASSIFICATION_TYPE":"U","NORAD_CAT_ID":54308,"ELEMENT_SET_NO":999,"REV_AT_EPOCH":17599,"BSTAR":0.0053055882,"MEAN_MOTION_DOT":0.00059316,"MEAN_MOTION_DDOT":0}]
